NORAD_CAT_ID,OBJECT_NAME,OBJECT_TYPE,EPOCH,MEAN_MOTION,ECCENTRICITY,INCLINATION,RA_OF_ASC_NODE,ARG_OF_PERICENTER,MEAN_ANOMALY,BSTAR,MEAN_MOTION_DOT,MEAN_MOTION_DDOT,TLE_LINE0,TLE_LINE1,TLE_LINE2,SEMIMAJOR_AXIS,PERIOD,APOGEE,PERIGEE,DECAYED
55921.0,STARLINK-5861,PAYLOAD,2023-08-02 07:54:34,14.98333417,0.0003537,70.0003,180.6007,262.9208,97.1549,4.1976e-05,4.08e-06,0.0,0 STARLINK-5861,1 55921U 23037H   23214.32956310  .00000408  00000-0  41976-4 0  9991,2 55921  70.0003 180.6007 0003537 262.9208  97.1549 14.98333417 21475,6950.182,96.107,574.506,569.589,0.0
55921.0,STARLINK-5861,PAYLOAD,2023-08-03 07:56:35,14.98331511,0.0003418,70.0006,178.0762,262.4787,97.5983,3.7652e-05,3.56e-06,0.0,0 STARLINK-5861,1 55921U 23037H   23215.33096387  .00000356  00000-0  37652-4 0  9990,2 55921  70.0006 178.0762 0003418 262.4787  97.5983 14.98331511 21628,6950.188,96.107,574.429,569.678,0.0
55921.0,STARLINK-5861,PAYLOAD,2023-08-04 03:10:12,14.98326968,0.0003244,70.001,176.0573,260.5515,99.5277,-4.0696e-05,-5.79e-06,0.0,0 STARLINK-5861,1 55921U 23037H   23216.13208963 -.00000579  00000-0 -40696-4 0  9995,2 55921  70.0010 176.0573 0003244 260.5515  99.5277 14.98326968 21747,6950.202,96.107,574.322,569.813,0.0
55921.0,STARLINK-5861,PAYLOAD,2023-08-05 03:12:13,14.98331277,0.0003235,70.0009,173.5324,260.2316,99.8478,2.1546e-05,1.64e-06,0.0,0 STARLINK-5861,1 55921U 23037H   23217.13348563  .00000164  00000-0  21546-4 0  9998,2 55921  70.0009 173.5324 0003235 260.2316  99.8478 14.98331277 21898,6950.189,96.107,574.302,569.806,0.0
55921.0,STARLINK-5861,PAYLOAD,2023-08-06 04:50:21,14.98334673,0.000318,70.001,170.8393,257.3641,102.7162,0.00010321,1.139e-05,0.0,0 STARLINK-5861,1 55921U 23037H   23218.20163865  .00001139  00000-0  10321-3 0  9998,2 55921  70.0010 170.8393 0003180 257.3641 102.7162 14.98334673 22059,6950.178,96.107,574.254,569.833,0.0
55921.0,STARLINK-5861,PAYLOAD,2023-08-06 14:27:10,14.98328913,0.0003041,70.0012,169.8293,270.0479,90.0331,1.0822e-05,3.6e-07,0.0,0 STARLINK-5861,1 55921U 23037H   23218.60220475  .00000036  00000-0  10822-4 0  9995,2 55921  70.0012 169.8293 0003041 270.0479  90.0331 14.98328913 22119,6950.196,96.107,574.175,569.948,0.0
55921.0,STARLINK-5861,PAYLOAD,2023-08-07 03:16:15,14.98321618,0.0002846,70.0011,168.4811,261.7494,98.3343,-6.1184e-05,-8.23e-06,0.0,0 STARLINK-5861,1 55921U 23037H   23219.13629214 -.00000823  00000-0 -61184-4 0  9991,2 55921  70.0011 168.4811 0002846 261.7494  98.3343 14.98321618 22192,6950.219,96.108,574.062,570.106,0.0
55921.0,STARLINK-5861,PAYLOAD,2023-08-07 19:17:35,14.9833258,0.0003247,70.0007,166.799,266.2133,93.8655,-1.6647e-05,-2.92e-06,0.0,0 STARLINK-5861,1 55921U 23037H   23219.80388491 -.00000292  00000-0 -16647-4 0  9998,2 55921  70.0007 166.7990 0003247 266.2133  93.8655 14.98332580 22299,6950.185,96.107,574.307,569.793,0.0
55921.0,STARLINK-5861,PAYLOAD,2023-08-08 06:30:31,14.98339197,0.0003278,70.0007,165.6208,268.1453,91.9331,6.5663e-05,6.91e-06,0.0,0 STARLINK-5861,1 55921U 23037H   23220.27119704  .00000691  00000-0  65663-4 0  9993,2 55921  70.0007 165.6208 0003278 268.1453  91.9331 14.98339197 22368,6950.164,96.106,574.308,569.751,0.0
55921.0,STARLINK-5861,PAYLOAD,2023-08-09 06:32:32,14.98327167,0.0003174,70.001,163.0961,269.2403,90.8392,8.1297e-05,8.77e-06,0.0,0 STARLINK-5861,1 55921U 23037H   23221.27260316  .00000877  00000-0  81297-4 0  9997,2 55921  70.0010 163.0961 0003174 269.2403  90.8392 14.98327167 22518,6950.202,96.107,574.273,569.861,0.0
55921.0,STARLINK-5861,PAYLOAD,2023-08-10 06:34:33,14.98335155,0.0003143,70.0028,160.5704,276.6451,83.4351,-3.4457e-05,-5.04e-06,0.0,0 STARLINK-5861,1 55921U 23037H   23222.27400195 -.00000504  00000-0 -34457-4 0  9994,2 55921  70.0028 160.5704 0003143 276.6451  83.4351 14.98335155 22660,6950.177,96.107,574.226,569.858,0.0
55921.0,STARLINK-5861,PAYLOAD,2023-08-10 12:59:04,14.98392016,0.0003156,70.0037,159.8952,286.2695,73.8117,-0.001057,-0.00012702,0.0,0 STARLINK-5861,1 55921U 23037H   23222.54102751 -.00012702  00000-0 -10570-2 0  9992,2 55921  70.0037 159.8952 0003156 286.2695  73.8117 14.98392016 22704,6950.001,96.103,574.06,569.673,0.0
55921.0,STARLINK-5861,PAYLOAD,2023-08-11 01:48:10,14.98321991,0.0003288,70.0006,158.5524,266.936,93.1423,1.7756e-06,-7.2e-07,0.0,0 STARLINK-5861,1 55921U 23037H   23223.07512680 -.00000072  00000-0  17756-5 0  9999,2 55921  70.0006 158.5524 0003288 266.9360  93.1423 14.98321991 22788,6950.218,96.108,574.368,569.797,0.0
55921.0,STARLINK-5861,PAYLOAD,2023-08-11 06:36:34,14.98329188,0.0003176,70.0015,158.0475,267.9012,92.1784,7.5427e-05,8.07e-06,0.0,0 STARLINK-5861,1 55921U 23037H   23223.27540111  .00000807  00000-0  75427-4 0  9994,2 55921  70.0015 158.0475 0003176 267.9012  92.1784 14.98329188 22818,6950.195,96.107,574.268,569.853,0.0
55921.0,STARLINK-5861,PAYLOAD,2023-08-12 13:03:08,14.98328955,0.0003197,70.0005,154.8495,269.8909,90.1883,3.4396e-05,3.17e-06,0.0,0 STARLINK-5861,1 55921U 23037H   23224.54384335  .00000317  00000-0  34396-4 0  9995,2 55921  70.0005 154.8495 0003197 269.8909  90.1883 14.98328955 23003,6950.196,96.107,574.283,569.839,0.0
55921.0,STARLINK-5861,PAYLOAD,2023-08-13 14:41:16,14.98331078,0.0003159,70.0007,152.1563,269.6886,90.3911,4.3312e-05,4.24e-06,0.0,0 STARLINK-5861,1 55921U 23037H   23225.61200190  .00000424  00000-0  43312-4 0  9997,2 55921  70.0007 152.1563 0003159 269.6886  90.3911 14.98331078 23163,6950.19,96.107,574.25,569.859,0.0
55921.0,STARLINK-5861,PAYLOAD,2023-08-14 01:54:12,14.98355109,0.0003187,70.0007,150.9785,266.987,93.0924,-0.00033206,-4.055e-05,0.0,0 STARLINK-5861,1 55921U 23037H   23226.07931619 -.00004055  00000-0 -33206-3 0  9991,2 55921  70.0007 150.9785 0003187 266.9870  93.0924 14.98355109 23232,6950.115,96.105,574.195,569.765,0.0
55921.0,STARLINK-5861,PAYLOAD,2023-08-14 05:06:29,14.98336249,0.0003127,70.0007,150.6418,269.8275,90.2525,4.6934e-05,4.67e-06,0.0,0 STARLINK-5861,1 55921U 23037H   23226.21283793  .00000467  00000-0  46934-4 0  9994,2 55921  70.0007 150.6418 0003127 269.8275  90.2525 14.98336249 23259,6950.174,96.107,574.212,569.865,0.0
55921.0,STARLINK-5861,PAYLOAD,2023-08-15 00:20:06,14.9832365,0.0003091,70.0006,148.6225,269.7033,90.3772,5.3832e-05,5.49e-06,0.0,0 STARLINK-5861,1 55921U 23037H   23227.01396503  .00000549  00000-0  53832-4 0  9993,2 55921  70.0006 148.6225 0003091 269.7033  90.3772 14.98323650 23372,6950.213,96.107,574.226,569.929,0.0
55921.0,STARLINK-5861,PAYLOAD,2023-08-15 05:08:30,14.98335564,0.0003073,70.0006,148.1173,269.9536,90.1271,5.9489e-06,-2.2e-07,0.0,0 STARLINK-5861,1 55921U 23037H   23227.21423834 -.00000022  00000-0  59489-5 0  9995,2 55921  70.0006 148.1173 0003073 269.9536  90.1271 14.98335564 23402,6950.176,96.107,574.176,569.905,0.0
55921.0,STARLINK-5861,PAYLOAD,2023-08-17 02:00:16,14.98332189,0.0003055,70.0005,143.4045,268.8824,91.1985,-2.0936e-06,-1.18e-06,0.0,0 STARLINK-5861,1 55921U 23037H   23229.08351951 -.00000118  00000-0 -20936-5 0  9994,2 55921  70.0005 143.4045 0003055 268.8824  91.1985 14.98332189 23688,6950.186,96.107,574.174,569.928,0.0
55921.0,STARLINK-5861,PAYLOAD,2023-08-18 03:38:24,14.98336643,0.0002707,70.0016,140.7096,284.3339,75.7519,4.5002e-06,-3.9e-07,0.0,0 STARLINK-5861,1 55921U 23037H   23230.15167730 -.00000039  00000-0  45002-5 0  9996,2 55921  70.0016 140.7096 0002707 284.3339  75.7519 14.98336643 23841,6950.172,96.107,573.919,570.156,0.0
55921.0,STARLINK-5861,PAYLOAD,2023-08-19 03:40:25,14.98335055,0.0003094,70.0004,138.1862,267.8445,92.236,1.3967e-05,7.4e-07,0.0,0 STARLINK-5861,1 55921U 23037H   23231.15307648  .00000074  00000-0  13967-4 0  9993,2 55921  70.0004 138.1862 0003094 267.8445  92.2360 14.98335055 23994,6950.177,96.107,574.193,569.892,0.0
55921.0,STARLINK-5861,PAYLOAD,2023-08-19 18:05:38,14.98328307,0.0002638,70.001,136.6704,277.3394,82.7465,5.9252e-05,6.14e-06,0.0,0 STARLINK-5861,1 55921U 23037H   23231.75392120  .00000614  00000-0  59252-4 0  9995,2 55921  70.0010 136.6704 0002638 277.3394  82.7465 14.98328307 24084,6950.198,96.107,573.897,570.23,0.0
55921.0,STARLINK-5861,PAYLOAD,2023-08-20 18:07:39,14.98333122,0.0003065,70.0003,134.1465,267.7142,92.3666,-8.4256e-06,-1.94e-06,0.0,0 STARLINK-5861,1 55921U 23037H   23232.75531883 -.00000194  00000-0 -84256-5 0  9995,2 55921  70.0003 134.1465 0003065 267.7142  92.3666 14.98333122 24230,6950.183,96.107,574.178,569.918,0.0
55921.0,STARLINK-5861,PAYLOAD,2023-08-21 03:44:27,14.9833867,0.0003087,70.0,133.1374,268.4304,91.6501,5.9207e-05,6.14e-06,0.0,0 STARLINK-5861,1 55921U 23037H   23233.15587225  .00000614  00000-0  59207-4 0  9993,2 55921  70.0000 133.1374 0003087 268.4304  91.6501 14.98338670 24296,6950.166,96.106,574.177,569.886,0.0
55921.0,STARLINK-5861,PAYLOAD,2023-08-21 19:45:48,14.98328611,0.0002648,70.0006,131.4545,265.4854,94.6003,6.1295e-05,6.38e-06,0.0,0 STARLINK-5861,1 55921U 23037H   23233.82347781  .00000638  00000-0  61295-4 0  9994,2 55921  70.0006 131.4545 0002648 265.4854  94.6003 14.98328611 24397,6950.197,96.107,573.903,570.222,0.0
55921.0,STARLINK-5861,PAYLOAD,2023-08-23 02:12:21,14.98327463,0.0003217,70.0006,128.257,275.1474,84.9318,-2.4614e-05,-3.87e-06,0.0,0 STARLINK-5861,1 55921U 23037H   23235.09192063 -.00000387  00000-0 -24614-4 0  9993,2 55921  70.0006 128.2570 0003217 275.1474  84.9318 14.98327463 24584,6950.201,96.107,574.302,569.83,0.0
55921.0,STARLINK-5861,PAYLOAD,2023-08-24 19:51:51,14.98330295,0.000285,70.0008,123.8809,261.246,98.8377,2.7043e-05,2.3e-06,0.0,0 STARLINK-5861,1 55921U 23037H   23236.82767737  .00000230  00000-0  27043-4 0  9995,2 55921  70.0008 123.8809 0002850 261.2460  98.8377 14.98330295 24503,6950.192,96.107,574.038,570.076,0.0
55921.0,STARLINK-5861,PAYLOAD,2023-08-25 02:16:23,14.98332117,0.0002867,70.0007,123.2068,266.3593,93.7238,3.9441e-05,3.78e-06,0.0,0 STARLINK-5861,1 55921U 23037H   23237.09471601  .00000378  00000-0  39441-4 0  9995,2 55921  70.0007 123.2068 0002867 266.3593  93.7238 14.98332117 24880,6950.186,96.107,574.044,570.059,0.0
